[{"OBJECT_NAME":"STARLINK-30854","OBJECT_ID":"2023-171Q","EPOCH":"2026-03-09T22:53:09.229920","MEAN_MOTION":15.27137431,"ECCENTRICITY":0.00023812,"INCLINATION":42.9977,"RA_OF_ASC_NODE":283.8391,"ARG_OF_PERICENTER":39.8536,"MEAN_ANOMALY":320.249,"EPHEMERIS_TYPE":0,"CLASSIFICATION_TYPE":"U","NORAD_CAT_ID":58244,"ELEMENT_SET_NO":999,"REV_AT_EPOCH":12977,"BSTAR":0.00293725,"MEAN_MOTION_DOT":0.0008036,"MEAN_MOTION_DDOT":0},{"OBJECT_NAME":"OBJECT B","OBJECT_ID":"2024-092B","EPOCH":"2026-03-09T22:35:16.756224","MEAN_MOTION":15.26654665,"ECCENTRICITY":0.00097063,"INCLINATION":97.6334,"RA_OF_ASC_NODE":195.5822,"ARG_OF_PERICENTER":166.5945,"MEAN_ANOMALY":193.5553,"EPHEMERIS_TYPE":0,"CLASSIFICATION_TYPE":"U","NORAD_CAT_ID":59774,"ELEMENT_SET_NO":999,"REV_AT_EPOCH":10038,"BSTAR":0.00052893964,"MEAN_MOTION_DOT":0.00013825,"MEAN_MOTION_DDOT":0}]
